CCSDS_OMM_VERS = 2.0
CREATION_DATE  = 
ORIGINATOR     = 

OBJECT_NAME    = STARLINK-35656
OBJECT_ID      = 2025-257M
CENTER_NAME    = EARTH
REF_FRAME      = TEME
TIME_SYSTEM    = UTC
MEAN_ELEMENT_THEORY = SGP/SGP4

EPOCH          = 2025-12-05T03:46:18.556608
MEAN_MOTION    = 15.40317588
ECCENTRICITY   = .00009833
INCLINATION    = 53.1603
RA_OF_ASC_NODE = 300.1096
ARG_OF_PERICENTER = 171.4639
MEAN_ANOMALY   = 188.6383

EPHEMERIS_TYPE = 0
CLASSIFICATION_TYPE = U
NORAD_CAT_ID   = 66391
ELEMENT_SET_NO = 999
REV_AT_EPOCH   = 530
BSTAR          = .98522303E-2
MEAN_MOTION_DOT = .426205E-2
MEAN_MOTION_DDOT = 0

CCSDS_OMM_VERS = 2.0
CREATION_DATE  = 
ORIGINATOR     = 

OBJECT_NAME    = STARLINK-35671
OBJECT_ID      = 2025-257N
CENTER_NAME    = EARTH
REF_FRAME      = TEME
TIME_SYSTEM    = UTC
MEAN_ELEMENT_THEORY = SGP/SGP4

EPOCH          = 2025-12-05T06:00:02.000160
MEAN_MOTION    = 15.39528813
ECCENTRICITY   = .00022622
INCLINATION    = 53.1608
RA_OF_ASC_NODE = 299.7349
ARG_OF_PERICENTER = 108.3291
MEAN_ANOMALY   = 22.2237

EPHEMERIS_TYPE = 0
CLASSIFICATION_TYPE = U
NORAD_CAT_ID   = 66392
ELEMENT_SET_NO = 999
REV_AT_EPOCH   = 529
BSTAR          = .23889068E-2
MEAN_MOTION_DOT = .9608E-3
MEAN_MOTION_DDOT = 0

CCSDS_OMM_VERS = 2.0
CREATION_DATE  = 
ORIGINATOR     = 

OBJECT_NAME    = STARLINK-35652
OBJECT_ID      = 2025-257P
CENTER_NAME    = EARTH
REF_FRAME      = TEME
TIME_SYSTEM    = UTC
MEAN_ELEMENT_THEORY = SGP/SGP4

EPOCH          = 2025-12-05T06:00:02.000160
MEAN_MOTION    = 15.43780646
ECCENTRICITY   = .00013141
INCLINATION    = 53.1594
RA_OF_ASC_NODE = 299.6500
ARG_OF_PERICENTER = 84.7819
MEAN_ANOMALY   = 88.4295

EPHEMERIS_TYPE = 0
CLASSIFICATION_TYPE = U
NORAD_CAT_ID   = 66393
ELEMENT_SET_NO = 999
REV_AT_EPOCH   = 529
BSTAR          = -.49518766E-1
MEAN_MOTION_DOT = -.2026084E-1
MEAN_MOTION_DDOT = 0

CCSDS_OMM_VERS = 2.0
CREATION_DATE  = 
ORIGINATOR     = 

OBJECT_NAME    = STARLINK-35672
OBJECT_ID      = 2025-257Q
CENTER_NAME    = EARTH
REF_FRAME      = TEME
TIME_SYSTEM    = UTC
MEAN_ELEMENT_THEORY = SGP/SGP4

EPOCH          = 2025-12-05T06:00:02.000160
MEAN_MOTION    = 15.43520746
ECCENTRICITY   = .00014818
INCLINATION    = 53.1599
RA_OF_ASC_NODE = 299.6434
ARG_OF_PERICENTER = 86.7221
MEAN_ANOMALY   = 89.1592

EPHEMERIS_TYPE = 0
CLASSIFICATION_TYPE = U
NORAD_CAT_ID   = 66394
ELEMENT_SET_NO = 999
REV_AT_EPOCH   = 529
BSTAR          = -.49977581E-1
MEAN_MOTION_DOT = -.2026812E-1
MEAN_MOTION_DDOT = 0

CCSDS_OMM_VERS = 2.0
CREATION_DATE  = 
ORIGINATOR     = 

OBJECT_NAME    = STARLINK-35681
OBJECT_ID      = 2025-257R
CENTER_NAME    = EARTH
REF_FRAME      = TEME
TIME_SYSTEM    = UTC
MEAN_ELEMENT_THEORY = SGP/SGP4

EPOCH          = 2025-12-05T03:38:00.834720
MEAN_MOTION    = 15.47742281
ECCENTRICITY   = .00052248
INCLINATION    = 53.1595
RA_OF_ASC_NODE = 300.0863
ARG_OF_PERICENTER = 189.6371
MEAN_ANOMALY   = 170.4538

EPHEMERIS_TYPE = 0
CLASSIFICATION_TYPE = U
NORAD_CAT_ID   = 66395
ELEMENT_SET_NO = 999
REV_AT_EPOCH   = 513
BSTAR          = -.20111944E-1
MEAN_MOTION_DOT = -.970243E-2
MEAN_MOTION_DDOT = 0

CCSDS_OMM_VERS = 2.0
CREATION_DATE  = 
ORIGINATOR     = 

OBJECT_NAME    = STARLINK-35669
OBJECT_ID      = 2025-257S
CENTER_NAME    = EARTH
REF_FRAME      = TEME
TIME_SYSTEM    = UTC
MEAN_ELEMENT_THEORY = SGP/SGP4

EPOCH          = 2025-12-04T09:02:39.769152
MEAN_MOTION    = 15.49365522
ECCENTRICITY   = .0001327
INCLINATION    = 53.1591
RA_OF_ASC_NODE = 303.7835
ARG_OF_PERICENTER = 104.0612
MEAN_ANOMALY   = 256.0545

EPHEMERIS_TYPE = 0
CLASSIFICATION_TYPE = U
NORAD_CAT_ID   = 66396
ELEMENT_SET_NO = 999
REV_AT_EPOCH   = 508
BSTAR          = .21205E-2
MEAN_MOTION_DOT = .119543E-2
MEAN_MOTION_DDOT = 0

CCSDS_OMM_VERS = 2.0
CREATION_DATE  = 
ORIGINATOR     = 

OBJECT_NAME    = STARLINK-35510
OBJECT_ID      = 2025-257T
CENTER_NAME    = EARTH
REF_FRAME      = TEME
TIME_SYSTEM    = UTC
MEAN_ELEMENT_THEORY = SGP/SGP4

EPOCH          = 2025-12-05T06:42:40.882176
MEAN_MOTION    = 15.49303240
ECCENTRICITY   = .00015769
INCLINATION    = 53.1591
RA_OF_ASC_NODE = 299.4635
ARG_OF_PERICENTER = 55.6954
MEAN_ANOMALY   = 304.4204

EPHEMERIS_TYPE = 0
CLASSIFICATION_TYPE = U
NORAD_CAT_ID   = 66397
ELEMENT_SET_NO = 999
REV_AT_EPOCH   = 522
BSTAR          = .21734523E-2
MEAN_MOTION_DOT = .122316E-2
MEAN_MOTION_DDOT = 0

CCSDS_OMM_VERS = 2.0
CREATION_DATE  = 
ORIGINATOR     = 

OBJECT_NAME    = STARLINK-35642
OBJECT_ID      = 2025-257U
CENTER_NAME    = EARTH
REF_FRAME      = TEME
TIME_SYSTEM    = UTC
MEAN_ELEMENT_THEORY = SGP/SGP4

EPOCH          = 2025-12-05T05:08:48.805728
MEAN_MOTION    = 15.49933402
ECCENTRICITY   = .00009989
INCLINATION    = 53.1594
RA_OF_ASC_NODE = 299.7669
ARG_OF_PERICENTER = 357.8183
MEAN_ANOMALY   = 2.2822

EPHEMERIS_TYPE = 0
CLASSIFICATION_TYPE = U
NORAD_CAT_ID   = 66398
ELEMENT_SET_NO = 999
REV_AT_EPOCH   = 521
BSTAR          = -.25665477E-1
MEAN_MOTION_DOT = -.1317318E-1
MEAN_MOTION_DDOT = 0

CCSDS_OMM_VERS = 2.0
CREATION_DATE  = 
ORIGINATOR     = 

OBJECT_NAME    = STARLINK-35657
OBJECT_ID      = 2025-257V
CENTER_NAME    = EARTH
REF_FRAME      = TEME
TIME_SYSTEM    = UTC
MEAN_ELEMENT_THEORY = SGP/SGP4

EPOCH          = 2025-12-05T05:08:21.567264
MEAN_MOTION    = 15.50012684
ECCENTRICITY   = .00009654
INCLINATION    = 53.1594
RA_OF_ASC_NODE = 299.7653
ARG_OF_PERICENTER = 53.0489
MEAN_ANOMALY   = 307.0609

EPHEMERIS_TYPE = 0
CLASSIFICATION_TYPE = U
NORAD_CAT_ID   = 66399
ELEMENT_SET_NO = 999
REV_AT_EPOCH   = 521
BSTAR          = -.13025319E-1
MEAN_MOTION_DOT = -.681635E-2
MEAN_MOTION_DDOT = 0

CCSDS_OMM_VERS = 2.0
CREATION_DATE  = 
ORIGINATOR     = 

OBJECT_NAME    = STARLINK-35667
OBJECT_ID      = 2025-257W
CENTER_NAME    = EARTH
REF_FRAME      = TEME
TIME_SYSTEM    = UTC
MEAN_ELEMENT_THEORY = SGP/SGP4

EPOCH          = 2025-12-05T05:07:48.019872
MEAN_MOTION    = 15.49306176
ECCENTRICITY   = .00010953
INCLINATION    = 53.1596
RA_OF_ASC_NODE = 299.7620
ARG_OF_PERICENTER = 93.5643
MEAN_ANOMALY   = 266.5491

EPHEMERIS_TYPE = 0
CLASSIFICATION_TYPE = U
NORAD_CAT_ID   = 66400
ELEMENT_SET_NO = 999
REV_AT_EPOCH   = 521
BSTAR          = .92400776E-3
MEAN_MOTION_DOT = .51274E-3
MEAN_MOTION_DDOT = 0

CCSDS_OMM_VERS = 2.0
CREATION_DATE  = 
ORIGINATOR     = 

OBJECT_NAME    = STARLINK-35668
OBJECT_ID      = 2025-257X
CENTER_NAME    = EARTH
REF_FRAME      = TEME
TIME_SYSTEM    = UTC
MEAN_ELEMENT_THEORY = SGP/SGP4

EPOCH          = 2025-12-05T05:06:53.192160
MEAN_MOTION    = 15.50047442
ECCENTRICITY   = .00018795
INCLINATION    = 53.1594
RA_OF_ASC_NODE = 299.7580
ARG_OF_PERICENTER = 109.8667
MEAN_ANOMALY   = 250.2545

EPHEMERIS_TYPE = 0
CLASSIFICATION_TYPE = U
NORAD_CAT_ID   = 66401
ELEMENT_SET_NO = 999
REV_AT_EPOCH   = 521
BSTAR          = -.13107939E-1
MEAN_MOTION_DOT = -.686536E-2
MEAN_MOTION_DDOT = 0

CCSDS_OMM_VERS = 2.0
CREATION_DATE  = 
ORIGINATOR     = 

OBJECT_NAME    = STARLINK-35644
OBJECT_ID      = 2025-257Y
CENTER_NAME    = EARTH
REF_FRAME      = TEME
TIME_SYSTEM    = UTC
MEAN_ELEMENT_THEORY = SGP/SGP4

EPOCH          = 2025-12-05T06:40:43.900032
MEAN_MOTION    = 15.50041017
ECCENTRICITY   = .00009514
INCLINATION    = 53.1592
RA_OF_ASC_NODE = 299.4536
ARG_OF_PERICENTER = 148.2149
MEAN_ANOMALY   = 211.8918

EPHEMERIS_TYPE = 0
CLASSIFICATION_TYPE = U
NORAD_CAT_ID   = 66402
ELEMENT_SET_NO = 999
REV_AT_EPOCH   = 522
BSTAR          = -.13016523E-1
MEAN_MOTION_DOT = -.681842E-2
MEAN_MOTION_DDOT = 0

