STARLINK-35656          
1 66391U 25257M   25339.15715922  .00426205  00000+0  98522-2 0  9996
2 66391  53.1603 300.1096 0000983 171.4639 188.6383 15.40317588  5302
STARLINK-35671          
1 66392U 25257N   25339.25002315  .00096080  00000+0  23889-2 0  9991
2 66392  53.1608 299.7349 0002262 108.3291  22.2237 15.39528813  5299
STARLINK-35652          
1 66393U 25257P   25339.25002315 -.02026084  00000+0 -49519-1 0  9990
2 66393  53.1594 299.6500 0001314  84.7819  88.4295 15.43780646  5299
STARLINK-35672          
1 66394U 25257Q   25339.25002315 -.02026812  00000+0 -49978-1 0  9999
2 66394  53.1599 299.6434 0001481  86.7221  89.1592 15.43520746  5296
STARLINK-35681          
1 66395U 25257R   25339.15139855 -.00970243  00000+0 -20112-1 0  9992
2 66395  53.1595 300.0863 0005224 189.6371 170.4538 15.47742281  5135
STARLINK-35669          
1 66396U 25257S   25338.37684918  .00119543  00000+0  21205-2 0  9992
2 66396  53.1591 303.7835 0001327 104.0612 256.0545 15.49365522  5084
STARLINK-35510          
1 66397U 25257T   25339.27963984  .00122316  00000+0  21735-2 0  9996
2 66397  53.1591 299.4635 0001576  55.6954 304.4204 15.49303240  5225
STARLINK-35642          
1 66398U 25257U   25339.21445377 -.01317318  00000+0 -25665-1 0  9998
2 66398  53.1594 299.7669 0000998 357.8183   2.2822 15.49933402  5214
STARLINK-35657          
1 66399U 25257V   25339.21413851 -.00681635  00000+0 -13025-1 0  9993
2 66399  53.1594 299.7653 0000965  53.0489 307.0609 15.50012684  5217
STARLINK-35667          
1 66400U 25257W   25339.21375023  .00051274  00000+0  92401-3 0  9999
2 66400  53.1596 299.7620 0001095  93.5643 266.5491 15.49306176  5210
STARLINK-35668          
1 66401U 25257X   25339.21311565 -.00686536  00000+0 -13108-1 0  9993
2 66401  53.1594 299.7580 0001879 109.8667 250.2545 15.50047442  5211
STARLINK-35644          
1 66402U 25257Y   25339.27828588 -.00681842  00000+0 -13017-1 0  9992
2 66402  53.1592 299.4536 0000951 148.2149 211.8918 15.50041017  5220
